[{"OBJECT_NAME":"STARLINK-36494","OBJECT_ID":"2026-002AC","EPOCH":"2026-03-09T23:37:36.798816","MEAN_MOTION":15.27602644,"ECCENTRICITY":0.00011543,"INCLINATION":42.9993,"RA_OF_ASC_NODE":323.625,"ARG_OF_PERICENTER":263.8982,"MEAN_ANOMALY":96.1738,"EPHEMERIS_TYPE":0,"CLASSIFICATION_TYPE":"U","NORAD_CAT_ID":67331,"ELEMENT_SET_NO":999,"REV_AT_EPOCH":1128,"BSTAR":0.0012146223,"MEAN_MOTION_DOT":0.00033336,"MEAN_MOTION_DDOT":0},{"OBJECT_NAME":"NOAA 17 DEB","OBJECT_ID":"2002-032AF","EPOCH":"2026-03-09T00:24:06.552000","MEAN_MOTION":15.25501717,"ECCENTRICITY":0.00030847,"INCLINATION":98.6472,"RA_OF_ASC_NODE":92.5947,"ARG_OF_PERICENTER":165.9893,"MEAN_ANOMALY":194.1428,"EPHEMERIS_TYPE":0,"CLASSIFICATION_TYPE":"U","NORAD_CAT_ID":48614,"ELEMENT_SET_NO":999,"REV_AT_EPOCH":26420,"BSTAR":0.01090047,"MEAN_MOTION_DOT":0.00286783,"MEAN_MOTION_DDOT":0}]
